{
  "type": "FeatureCollection",
  "features": [
    {
      "type": "Feature",
      "properties": {
        "norad_id": 33805,
        "name": "COSMOS 2251 DEB",
        "group": "cosmos-2251-debris",
        "lat": -72.85794793187755,
        "lon": -164.5227020226208,
        "alt_km": 733.1053972113841,
        "timestamp": "2025-12-14T20:40:32.165483+00:00",
        "meta_object_name": "COSMOS 2251 DEB",
        "meta_object_id": "1993-036AW",
        "meta_epoch": "2025-12-14T07:56:45.506400",
        "meta_mean_motion": 14.57860172,
        "meta_eccentricity": 0.00601483,
        "meta_inclination": 74.0309,
        "meta_ra_of_asc_node": 308.3034,
        "meta_arg_of_pericenter": 136.8207,
        "meta_mean_anomaly": 223.7698,
        "meta_ephemeris_type": 0,
        "meta_classification_type": "U",
        "meta_norad_cat_id": 33805,
        "meta_element_set_no": 999,
        "meta_rev_at_epoch": 89250,
        "meta_bstar": 0.00032584581,
        "meta_mean_motion_dot": 1.5e-05,
        "meta_mean_motion_ddot": 0,
        "tle_line1": "1 33805U 93036AW  25348.33108225  .00001500  00000+0  32585-3 0  9997",
        "tle_line2": "2 33805  74.0309 308.3034 0060148 136.8207 223.7698 14.57860172892503"
      },
      "geometry": {
        "type": "Point",
        "coordinates": [
          -164.5227020226208,
          -72.85794793187755
        ]
      }
    },
    {
      "type": "Feature",
      "properties": {
        "norad_id": 33811,
        "name": "COSMOS 2251 DEB",
        "group": "cosmos-2251-debris",
        "lat": 43.798619403009944,
        "lon": 102.10947636678179,
        "alt_km": 555.4692354204599,
        "timestamp": "2025-12-14T20:40:32.165495+00:00",
        "meta_object_name": "COSMOS 2251 DEB",
        "meta_object_id": "1993-036BC",
        "meta_epoch": "2025-12-14T07:51:39.265920",
        "meta_mean_motion": 15.0533642,
        "meta_eccentricity": 0.00308145,
        "meta_inclination": 73.8378,
        "meta_ra_of_asc_node": 299.3631,
        "meta_arg_of_pericenter": 19.748,
        "meta_mean_anomaly": 101.3877,
        "meta_ephemeris_type": 0,
        "meta_classification_type": "U",
        "meta_norad_cat_id": 33811,
        "meta_element_set_no": 999,
        "meta_rev_at_epoch": 90042,
        "meta_bstar": 0.0012030584,
        "meta_mean_motion_dot": 0.00017413,
        "meta_mean_motion_ddot": 0,
        "tle_line1": "1 33811U 93036BC  25348.32753780  .00017413  00000+0  12031-2 0  9998",
        "tle_line2": "2 33811  73.8378 299.3631 0030814  19.7480 101.3877 15.05336420900423"
      },
      "geometry": {
        "type": "Point",
        "coordinates": [
          102.10947636678179,
          43.798619403009944
        ]
      }
    },
    {
      "type": "Feature",
      "properties": {
        "norad_id": 33815,
        "name": "COSMOS 2251 DEB",
        "group": "cosmos-2251-debris",
        "lat": -54.949992148894715,
        "lon": 147.8992799446893,
        "alt_km": 515.5585394230602,
        "timestamp": "2025-12-14T20:40:32.165518+00:00",
        "meta_object_name": "COSMOS 2251 DEB",
        "meta_object_id": "1993-036BG",
        "meta_epoch": "2025-12-13T23:18:57.597408",
        "meta_mean_motion": 15.18472653,
        "meta_eccentricity": 0.00013921,
        "meta_inclination": 73.9517,
        "meta_ra_of_asc_node": 173.9958,
        "meta_arg_of_pericenter": 264.5403,
        "meta_mean_anomaly": 213.6612,
        "meta_ephemeris_type": 0,
        "meta_classification_type": "U",
        "meta_norad_cat_id": 33815,
        "meta_element_set_no": 999,
        "meta_rev_at_epoch": 88389,
        "meta_bstar": 0.0074110076,
        "meta_mean_motion_dot": 0.00156118,
        "meta_mean_motion_ddot": 0,
        "tle_line1": "1 33815U 93036BG  25347.97149997  .00156118  00000+0  74110-2 0  9993",
        "tle_line2": "2 33815  73.9517 173.9958 0001392 264.5403 213.6612 15.18472653883894"
      },
      "geometry": {
        "type": "Point",
        "coordinates": [
          147.8992799446893,
          -54.949992148894715
        ]
      }
    },
    {
      "type": "Feature",
      "properties": {
        "norad_id": 33816,
        "name": "COSMOS 2251 DEB",
        "group": "cosmos-2251-debris",
        "lat": -22.61551185359898,
        "lon": -71.28755828057247,
        "alt_km": 954.587215888223,
        "timestamp": "2025-12-14T20:40:32.165540+00:00",
        "meta_object_name": "COSMOS 2251 DEB",
        "meta_object_id": "1993-036BH",
        "meta_epoch": "2025-12-14T07:33:33.131520",
        "meta_mean_motion": 13.81785779,
        "meta_eccentricity": 0.0264617,
        "meta_inclination": 73.895,
        "meta_ra_of_asc_node": 102.726,
        "meta_arg_of_pericenter": 115.3455,
        "meta_mean_anomaly": 247.5324,
        "meta_ephemeris_type": 0,
        "meta_classification_type": "U",
        "meta_norad_cat_id": 33816,
        "meta_element_set_no": 999,
        "meta_rev_at_epoch": 84695,
        "meta_bstar": 0.00057391873,
        "meta_mean_motion_dot": 7.8e-06,
        "meta_mean_motion_ddot": 0,
        "tle_line1": "1 33816U 93036BH  25348.31496680  .00000780  00000+0  57392-3 0  9994",
        "tle_line2": "2 33816  73.8950 102.7260 0264617 115.3455 247.5324 13.81785779846958"
      },
      "geometry": {
        "type": "Point",
        "coordinates": [
          -71.28755828057247,
          -22.61551185359898
        ]
      }
    },
    {
      "type": "Feature",
      "properties": {
        "norad_id": 33818,
        "name": "COSMOS 2251 DEB",
        "group": "cosmos-2251-debris",
        "lat": 33.21973355740479,
        "lon": -28.92100188538518,
        "alt_km": 507.31131218659357,
        "timestamp": "2025-12-14T20:40:32.165560+00:00",
        "meta_object_name": "COSMOS 2251 DEB",
        "meta_object_id": "1993-036BK",
        "meta_epoch": "2025-12-14T06:30:53.383680",
        "meta_mean_motion": 15.12653004,
        "meta_eccentricity": 0.00265636,
        "meta_inclination": 74.076,
        "meta_ra_of_asc_node": 163.0745,
        "meta_arg_of_pericenter": 151.2373,
        "meta_mean_anomaly": 22.2407,
        "meta_ephemeris_type": 0,
        "meta_classification_type": "U",
        "meta_norad_cat_id": 33818,
        "meta_element_set_no": 999,
        "meta_rev_at_epoch": 89885,
        "meta_bstar": 0.0027493947,
        "meta_mean_motion_dot": 0.00048782,
        "meta_mean_motion_ddot": 0,
        "tle_line1": "1 33818U 93036BK  25348.27145120  .00048782  00000+0  27494-2 0  9994",
        "tle_line2": "2 33818  74.0760 163.0745 0026563 151.2373  22.2407 15.12653004898851"
      },
      "geometry": {
        "type": "Point",
        "coordinates": [
          -28.92100188538518,
          33.21973355740479
        ]
      }
    },
    {
      "type": "Feature",
      "properties": {
        "norad_id": 33819,
        "name": "COSMOS 2251 DEB",
        "group": "cosmos-2251-debris",
        "lat": 14.46769826148281,
        "lon": -149.79608626183693,
        "alt_km": 744.7815856809402,
        "timestamp": "2025-12-14T20:40:32.165571+00:00",
        "meta_object_name": "COSMOS 2251 DEB",
        "meta_object_id": "1993-036BL",
        "meta_epoch": "2025-12-14T01:14:11.681376",
        "meta_mean_motion": 14.32229745,
        "meta_eccentricity": 0.00891136,
        "meta_inclination": 74.1788,
        "meta_ra_of_asc_node": 207.4729,
        "meta_arg_of_pericenter": 68.3941,
        "meta_mean_anomaly": 93.0759,
        "meta_ephemeris_type": 0,
        "meta_classification_type": "U",
        "meta_norad_cat_id": 33819,
        "meta_element_set_no": 999,
        "meta_rev_at_epoch": 87514,
        "meta_bstar": 0.00083228788,
        "meta_mean_motion_dot": 2.321e-05,
        "meta_mean_motion_ddot": 0,
        "tle_line1": "1 33819U 93036BL  25348.05152409  .00002321  00000+0  83229-3 0  9997",
        "tle_line2": "2 33819  74.1788 207.4729 0089113  68.3941  93.0759 14.32229745875142"
      },
      "geometry": {
        "type": "Point",
        "coordinates": [
          -149.79608626183693,
          14.46769826148281
        ]
      }
    },
    {
      "type": "Feature",
      "properties": {
        "norad_id": 33821,
        "name": "COSMOS 2251 DEB",
        "group": "cosmos-2251-debris",
        "lat": 41.8539019299766,
        "lon": 153.21675916965174,
        "alt_km": 506.9523648262393,
        "timestamp": "2025-12-14T20:40:32.165582+00:00",
        "meta_object_name": "COSMOS 2251 DEB",
        "meta_object_id": "1993-036BN",
        "meta_epoch": "2025-12-14T03:10:04.469952",
        "meta_mean_motion": 15.25421712,
        "meta_eccentricity": 0.00515301,
        "meta_inclination": 74.0293,
        "meta_ra_of_asc_node": 139.8932,
        "meta_arg_of_pericenter": 172.9747,
        "meta_mean_anomaly": 187.2189,
        "meta_ephemeris_type": 0,
        "meta_classification_type": "U",
        "meta_norad_cat_id": 33821,
        "meta_element_set_no": 999,
        "meta_rev_at_epoch": 75022,
        "meta_bstar": 0.0012508224,
        "meta_mean_motion_dot": 0.00032948,
        "meta_mean_motion_ddot": 0,
        "tle_line1": "1 33821U 93036BN  25348.13199618  .00032948  00000+0  12508-2 0  9991",
        "tle_line2": "2 33821  74.0293 139.8932 0051530 172.9747 187.2189 15.25421712750222"
      },
      "geometry": {
        "type": "Point",
        "coordinates": [
          153.21675916965174,
          41.8539019299766
        ]
      }
    }
  ]
}